STARLINK-1132
1 45044U 20006A   26092.53144808  .00094736  00000+0  18690-2 0  9991
2 45044  53.1548 140.7351 0004589 336.2814  23.7982 15.46418236340614
